*******************************************************************************
 Revised: April 12, 2021                 Earth                              399
 
 GEOPHYSICAL PROPERTIES (revised May 9, 2022):
  Vol. Mean Radius (km)    = 6371.01+-0.02   Mass x10^24 (kg)= 5.97219+-0.0006
  Equ. radius, km          = 6378.137        Mass layers:
  Polar axis, km           = 6356.752          Atmos         = 5.1   x 10^18 kg
  Flattening               = 1/298.257223563   oceans        = 1.4   x 10^21 kg
  Density, g/cm^3          = 5.51              crust         = 2.6   x 10^22 kg
  J2 (IERS 2010)           = 0.00108262545     mantle        = 4.043 x 10^24 kg
  g_p, m/s^2  (polar)      = 9.8321863685      outer core    = 1.835 x 10^24 kg
  g_e, m/s^2  (equatorial) = 9.7803267715      inner core    = 9.675 x 10^22 kg
  g_o, m/s^2               = 9.82022         Fluid core rad  = 3480 km
  GM, km^3/s^2             = 398600.435436   Inner core rad  = 1215 km
  GM 1-sigma, km^3/s^2     =      0.0014     Escape velocity = 11.186 km/s
  Rot. Rate (rad/s)        = 0.00007292115   Surface area:
  Mean sidereal day, hr    = 23.9344695944     land          = 1.48 x 10^8 km
  Mean solar day 2000.0, s = 86400.002         sea           = 3.62 x 10^8 km
  Mean solar day 1820.0, s = 86400.0         Love no., k2    = 0.299
  Moment of inertia        = 0.3308          Atm. pressure   = 1.0 bar
  Mean surface temp (Ts), K= 287.6           Volume, km^3    = 1.08321 x 10^12
  Mean effect. temp (Te), K= 255             Magnetic moment = 0.61 gauss Rp^3
  Geometric albedo         = 0.367           Vis. mag. V(1,0)= -3.86
  Solar Constant (W/m^2)   = 1367.6 (mean), 1414 (perihelion), 1322 (aphelion)
 HELIOCENTRIC ORBIT CHARACTERISTICS:
  Obliquity to orbit, deg  = 23.4392911  Sidereal orb period  = 1.0000174 y
  Orbital speed, km/s      = 29.79       Sidereal orb period  = 365.25636 d
  Mean daily motion, deg/d = 0.9856474   Hill's sphere radius = 234.9       
*******************************************************************************


*******************************************************************************
Ephemeris / WWW_USER Fri Feb 27 13:46:07 2026 Pasadena, USA      / Horizons
*******************************************************************************
Target body name: Earth (399)                     {source: DE441}
Center body name: Sun (10)                        {source: DE441}
Center-site name: BODY CENTER
*******************************************************************************
Start time      : A.D. 2023-Jan-01 00:00:00.0000 TDB
Stop  time      : A.D. 2024-Jan-01 00:00:00.0000 TDB
Step-size       : 1440 minutes
*******************************************************************************
Center geodetic : 0.0, 0.0, 0.0                   {E-lon(deg),Lat(deg),Alt(km)}
Center cylindric: 0.0, 0.0, 0.0                   {E-lon(deg),Dxy(km),Dz(km)}
Center radii    : 695700.0, 695700.0, 695700.0 km {Equator_a, b, pole_c}
Output units    : KM-S
Calendar mode   : Mixed Julian/Gregorian
Output type     : GEOMETRIC cartesian states
Output format   : 2x (pos. & vel. w/uncertainties: XYZ)
Reference frame : Ecliptic of J2000.0
*******************************************************************************
            JDTDB             Calendar Date (TDB),                      X,                      Y,                      Z,                     VX,                     VY,                     VZ,             X_s,             Y_s,             Z_s,            VX_s,            VY_s,            VZ_s,
********************************************************************************************************************************************************************************************************************************************************************************************************
$$SOE
2460005.500000000, A.D. 2023-Mar-02 00:00:00.0000, -1.399987441109166E+08,  4.870977281880465E+07, -2.166110696762800E+03, -1.026172612343605E+01, -2.824578057008158E+01,  1.062499992363186E-03,            n.a.,            n.a.,            n.a.,            n.a.,            n.a.,            n.a.,
2460006.500000000, A.D. 2023-Mar-03 00:00:00.0000, -1.408640532648540E+08,  4.626216234810229E+07, -2.064744963236153E+03, -9.768214636341037E+00, -2.841044105034860E+01,  1.286219083432627E-03,            n.a.,            n.a.,            n.a.,            n.a.,            n.a.,            n.a.,
2460007.500000000, A.D. 2023-Mar-04 00:00:00.0000, -1.416866304883500E+08,  4.380069468326762E+07, -1.943578885449097E+03, -9.272580881194742E+00, -2.856655710601328E+01,  1.519414555550824E-03,            n.a.,            n.a.,            n.a.,            n.a.,            n.a.,            n.a.,
2460008.500000000, A.D. 2023-Mar-05 00:00:00.0000, -1.424662974004376E+08,  4.132610597032928E+07, -1.802167498342693E+03, -8.774938363259608E+00, -2.871417691862344E+01,  1.753384823244275E-03,            n.a.,            n.a.,            n.a.,            n.a.,            n.a.,            n.a.,
2460009.500000000, A.D. 2023-Mar-06 00:00:00.0000, -1.432028849174848E+08,  3.883912826833636E+07, -1.640831003990024E+03, -8.275388422040837E+00, -2.885334672271454E+01,  1.979116191867192E-03,            n.a.,            n.a.,            n.a.,            n.a.,            n.a.,            n.a.,
2460010.500000000, A.D. 2023-Mar-07 00:00:00.0000, -1.438962321099665E+08,  3.634048979278947E+07, -1.460680406155065E+03, -7.774018176000224E+00, -2.898410877404225E+01,  2.187339122016851E-03,            n.a.,            n.a.,            n.a.,            n.a.,            n.a.,            n.a.,
2460011.500000000, A.D. 2023-Mar-08 00:00:00.0000, -1.445461849131112E+08,  3.383091540431153E+07, -1.263631502546370E+03, -7.270899320596238E+00, -2.910649778052204E+01,  2.368742436150484E-03,            n.a.,            n.a.,            n.a.,            n.a.,            n.a.,            n.a.,
2460012.500000000, A.D. 2023-Mar-09 00:00:00.0000, -1.451525947934523E+08,  3.131112745178729E+07, -1.052393843734637E+03, -6.766088382356052E+00, -2.922053638217221E+01,  2.514333825685000E-03,            n.a.,            n.a.,            n.a.,            n.a.,            n.a.,            n.a.,
2460013.500000000, A.D. 2023-Mar-10 00:00:00.0000, -1.457153175103146E+08,  2.878184702066337E+07, -8.304236518517137E+02, -6.259628668846404E+00, -2.932623041653070E+01,  2.615904758563659E-03,            n.a.,            n.a.,            n.a.,            n.a.,            n.a.,            n.a.,
2460014.500000000, A.D. 2023-Mar-11 00:00:00.0000, -1.462342121150874E+08,  2.624379557493768E+07, -6.018340951483697E+02, -5.751553772456134E+00, -2.942356463135544E+01,  2.666543273290856E-03,            n.a.,            n.a.,            n.a.,            n.a.,            n.a.,            n.a.,
2460015.500000000, A.D. 2023-Mar-12 00:00:00.0000, -1.467091403069506E+08,  2.369769693557557E+07, -3.712609839085490E+02, -5.241892248837393E+00, -2.951249921418043E+01,  2.661147218248061E-03,            n.a.,            n.a.,            n.a.,            n.a.,            n.a.,            n.a.,
2460016.500000000, A.D. 2023-Mar-13 00:00:00.0000, -1.471399662309138E+08,  2.114427952229345E+07, -1.436848689178005E+02, -4.730673145583375E+00, -2.959296714092325E+01,  2.596920330946162E-03,            n.a.,            n.a.,            n.a.,            n.a.,            n.a.,            n.a.,
2460017.500000000, A.D. 2023-Mar-14 00:00:00.0000, -1.475265567900000E+08,  1.858427879610950E+07,  7.578946004621685E+01, -4.217932424899797E+00, -2.966487215075571E+01,  2.473866841221195E-03,            n.a.,            n.a.,            n.a.,            n.a.,            n.a.,            n.a.,
2460018.500000000, A.D. 2023-Mar-15 00:00:00.0000, -1.478687825692304E+08,  1.601843985060159E+07,  2.821971068540588E+02, -3.703720832441642E+00, -2.972808738258078E+01,  2.295309320750505E-03,            n.a.,            n.a.,            n.a.,            n.a.,            n.a.,            n.a.,
2460019.500000000, A.D. 2023-Mar-16 00:00:00.0000, -1.481665195321203E+08,  1.344752006732288E+07,  4.710225869007409E+02, -3.188114041179043E+00, -2.978245547724071E+01,  2.068411206561649E-03,            n.a.,            n.a.,            n.a.,            n.a.,            n.a.,            n.a.,
2460020.500000000, A.D. 2023-Mar-17 00:00:00.0000, -1.484196517094876E+08,  1.087229163340192E+07,  6.385506441853940E+02, -2.671225445485055E+00, -2.982779208295121E+01,  1.804577173743382E-03,            n.a.,            n.a.,            n.a.,            n.a.,            n.a.,            n.a.,
2460021.500000000, A.D. 2023-Mar-18 00:00:00.0000, -1.486280750727092E+08,  8.293543509286717E+06,  7.822370334458537E+02, -2.153220385185046E+00, -2.986389556285297E+01,  1.519457859192386E-03,            n.a.,            n.a.,            n.a.,            n.a.,            n.a.,            n.a.,
2460022.500000000, A.D. 2023-Mar-19 00:00:00.0000, -1.487917025708406E+08,  5.712082200850855E+06,  9.010493908636272E+02, -1.634327999602640E+00, -2.989056518123247E+01,  1.232191965410578E-03,            n.a.,            n.a.,            n.a.,            n.a.,            n.a.,            n.a.,
2460023.500000000, A.D. 2023-Mar-20 00:00:00.0000, -1.489104698755766E+08,  3.128730600868176E+06,  9.956991784197744E+02, -1.114844669751016E+00, -2.990762712515288E+01,  9.636229281753117E-04,            n.a.,            n.a.,            n.a.,            n.a.,            n.a.,            n.a.,
2460024.500000000, A.D. 2023-Mar-21 00:00:00.0000, -1.489843408482211E+08,  5.443244243558558E+05,  1.068677916831977E+03, -5.951234799168296E-01, -2.991496283979942E+01,  7.336186838493575E-04,            n.a.,            n.a.,            n.a.,            n.a.,            n.a.,            n.a.,
